IRIDIUM 7 [-]           
1 24793U 97020B   24104.73690030  .00000469  00000+0  15751-3 0  9992
2 24793  86.4009 356.8235 0002439  88.0675 272.0801 14.35151254410284
IRIDIUM 5 [-]           
1 24795U 97020D   24104.90210022  .00006057  00000+0  58989-3 0  9991
2 24795  86.3878 280.3596 0122179 230.0545 128.9898 14.86805910421513
IRIDIUM 4 [-]           
1 24796U 97020E   24104.78519340  .00000508  00000+0  16801-3 0  9995
2 24796  86.4001 353.9684 0002212  90.3792 269.7658 14.36072520410822
IRIDIUM 16 [-]          
1 24841U 97030F   24104.86996872  .00000705  00000+0  22767-3 0  9992
2 24841  86.4086  25.5856 0003921  61.1788 298.9803 14.37808406405290
IRIDIUM 911 [-]         
1 24842U 97030G   24104.83448559  .00000876  00000+0  23784-3 0  9993
2 24842  86.4512  24.7820 0016628  88.4835 271.8272 14.46416462412992
IRIDIUM 17 [-]          
1 24870U 97034B   24104.86814904  .00000733  00000+0  24123-3 0  9992
2 24870  86.3965  55.1944 0002383  45.5655 314.5737 14.36893473401917
IRIDIUM 920 [-]         
1 24871U 97034C   24104.90384053  .00000713  00000+0  21735-3 0  9999
2 24871  86.4016  35.4092 0013617  62.4610 297.7971 14.40619283404759
